[{"OBJECT_NAME":"PE2_FLT1 (TYVAK-0261)","OBJECT_ID":"2024-043H","EPOCH":"2026-03-09T22:11:30.005376","MEAN_MOTION":14.96611647,"ECCENTRICITY":0.00060821,"INCLINATION":97.8224,"RA_OF_ASC_NODE":199.4267,"ARG_OF_PERICENTER":22.6188,"MEAN_ANOMALY":337.53,"EPHEMERIS_TYPE":0,"CLASSIFICATION_TYPE":"U","NORAD_CAT_ID":59105,"ELEMENT_SET_NO":999,"REV_AT_EPOCH":10980,"BSTAR":0.00036312112,"MEAN_MOTION_DOT":4.08e-5,"MEAN_MOTION_DDOT":0},{"OBJECT_NAME":"STARLINK-36172","OBJECT_ID":"2025-293T","EPOCH":"2026-03-09T19:05:12.319872","MEAN_MOTION":14.98326791,"ECCENTRICITY":0.00028802,"INCLINATION":70.001,"RA_OF_ASC_NODE":94.1898,"ARG_OF_PERICENTER":269.5473,"MEAN_ANOMALY":90.5356,"EPHEMERIS_TYPE":0,"CLASSIFICATION_TYPE":"U","NORAD_CAT_ID":67020,"ELEMENT_SET_NO":999,"REV_AT_EPOCH":1489,"BSTAR":0.0013659613,"MEAN_MOTION_DOT":0.00016242,"MEAN_MOTION_DDOT":0}]
